NUSAT-50 (NANCY ROMAN)  
1 60493U 24149AB  26068.80227738  .00012094  00000+0  42252-3 0  9994
2 60493  97.3817 150.7693 0002523 238.0469 122.0527 15.29713355 86930
STARLINK-35905          
1 67048U 25294U   26067.28562897  .00045128  00000+0  16404-2 0  9991
2 67048  43.0005  46.0731 0001091 271.0703  89.0024 15.27561392 14583
